XRISM                   
1 57800U 23137A   23333.11826027  .00007098  00000+0  56875-3 0  9994
2 57800  31.0020 209.9393 0010155  15.6887 344.4061 14.98764762 12470
